STARLINK-1176
1 25090C 20006AY  21325.12586198 -.00000664  00000-0 -44477-4 0  3250
2 25090  53.0543  92.6641 0001427  72.5832 341.6190 15.06412650    14
